ONEWEB-0628             
1 55169U 23004AF  24161.96176781 -.00000408  00000+0 -11715-2 0  9994
2 55169  87.8936 137.4234 0001320 104.1265 256.0010 13.12303468 71337
ONEWEB-0629             
1 55170U 23004AG  24161.94562809  .00000032  00000+0  48249-4 0  9999
2 55170  87.9157 152.6380 0001937 102.4341 257.7007 13.17646901 70493
ONEWEB-0709             
1 55172U 23004AJ  24161.94864625  .00000039  00000+0  74895-4 0  9995
2 55172  87.8958 167.7998 0002483  64.2986 295.8398 13.11416880 69244
ONEWEB-0710             
1 55173U 23004AK  24161.93931278  .00000017  00000+0  95804-5 0  9994
2 55173  87.9159 152.6509 0001941  83.0314 277.1038 13.17647723 70493
ONEWEB-0711             
1 55174U 23004AL  24161.76723431  .00000418  00000+0  11431-2 0  9992
2 55174  87.8958 167.8048 0001132 101.3880 258.7375 13.11420075 69186
ONEWEB-0713             
1 55175U 23004AM  24161.93848338  .00000407  00000+0  11127-2 0  9996
2 55175  87.8957 167.7791 0001640  93.8183 266.3132 13.11414483 69198
